NORAD_CAT_ID,OBJECT_NAME,OBJECT_TYPE,EPOCH,MEAN_MOTION,ECCENTRICITY,INCLINATION,RA_OF_ASC_NODE,ARG_OF_PERICENTER,MEAN_ANOMALY,BSTAR,MEAN_MOTION_DOT,MEAN_MOTION_DDOT,TLE_LINE0,TLE_LINE1,TLE_LINE2,SEMIMAJOR_AXIS,PERIOD,APOGEE,PERIGEE,DECAYED
52484.0,STARLINK-3887,PAYLOAD,2024-01-30 21:48:14,15.08843746,0.0001586,53.2155,270.3152,109.833,250.2833,0.00011246,1.502e-05,0.0,0 STARLINK-3887,1 52484U 22049AK  24030.90849551  .00001502  00000-0  11246-3 0  9995,2 52484  53.2155 270.3152 0001586 109.8330 250.2833 15.08843746 96194,6917.869,95.437,540.831,538.637,0.0
52484.0,STARLINK-3887,PAYLOAD,2024-01-31 00:59:00,15.08843555,0.0001419,53.2148,269.7203,97.9812,262.1341,0.00011061,1.473e-05,0.0,0 STARLINK-3887,1 52484U 22049AK  24031.04097599  .00001473  00000-0  11061-3 0  9990,2 52484  53.2148 269.7203 0001419  97.9812 262.1341 15.08843555 96219,6917.87,95.437,540.716,538.753,0.0
52484.0,STARLINK-3887,PAYLOAD,2024-01-31 23:14:24,15.0883703,0.0001519,53.2148,265.5597,82.0855,278.0309,4.1157e-06,-2.22e-06,0.0,0 STARLINK-3887,1 52484U 22049AK  24031.96834141 -.00000222  00000-0  41157-5 0  9996,2 52484  53.2148 265.5597 0001519  82.0855 278.0309 15.08837030 96516,6917.889,95.438,540.805,538.704,0.0
52484.0,STARLINK-3887,PAYLOAD,2024-02-01 19:54:25,15.08841321,0.0001434,53.2163,261.693,89.0588,271.0568,7.5852e-05,9.19e-06,0.0,0 STARLINK-3887,1 52484U 22049AK  24032.82946082  .00000919  00000-0  75852-4 0  9990,2 52484  53.2163 261.6930 0001434  89.0588 271.0568 15.08841321 96481,6917.876,95.437,540.733,538.749,0.0
52484.0,STARLINK-3887,PAYLOAD,2024-02-02 19:45:12,15.08840917,0.0001384,53.2166,257.2332,88.6524,271.4627,0.00011797,1.59e-05,0.0,0 STARLINK-3887,1 52484U 22049AK  24033.82306050  .00001590  00000-0  11797-3 0  9999,2 52484  53.2166 257.2332 0001384  88.6524 271.4627 15.08840917 96794,6917.878,95.437,540.7,538.785,0.0
52484.0,STARLINK-3887,PAYLOAD,2024-02-02 21:20:35,15.08841974,0.0001396,53.2166,256.9358,88.4579,271.6573,0.00012431,1.691e-05,0.0,0 STARLINK-3887,1 52484U 22049AK  24033.88929952  .00001691  00000-0  12431-3 0  9995,2 52484  53.2166 256.9358 0001396  88.4579 271.6573 15.08841974 96649,6917.874,95.437,540.705,538.774,0.0
52484.0,STARLINK-3887,PAYLOAD,2024-02-03 00:31:21,15.08843689,0.0001385,53.2164,256.3405,88.7482,271.3669,0.00013795,1.908e-05,0.0,0 STARLINK-3887,1 52484U 22049AK  24034.02177802  .00001908  00000-0  13795-3 0  9996,2 52484  53.2164 256.3405 0001385  88.7482 271.3669 15.08843689 96668,6917.869,95.437,540.692,538.776,0.0
52484.0,STARLINK-3887,PAYLOAD,2024-02-03 21:11:22,15.08841784,0.000144,53.2161,252.4737,97.6197,262.4959,6.2146e-05,7.01e-06,0.0,0 STARLINK-3887,1 52484U 22049AK  24034.88290048  .00000701  00000-0  62146-4 0  9993,2 52484  53.2161 252.4737 0001440  97.6197 262.4959 15.08841784 96953,6917.875,95.437,540.736,538.744,0.0
52484.0,STARLINK-3887,PAYLOAD,2024-02-04 19:26:46,15.08841085,0.0001457,53.2161,248.3088,101.4376,258.678,5.3027e-05,5.56e-06,0.0,0 STARLINK-3887,1 52484U 22049AK  24035.81026114  .00000556  00000-0  53027-4 0  9994,2 52484  53.2161 248.3088 0001457 101.4376 258.6780 15.08841085 96938,6917.877,95.437,540.75,538.734,0.0
52484.0,STARLINK-3887,PAYLOAD,2024-02-05 06:34:28,15.08839748,0.0001358,53.2156,246.2273,90.9586,269.1561,5.0436e-05,5.15e-06,0.0,0 STARLINK-3887,1 52484U 22049AK  24036.27394256  .00000515  00000-0  50436-4 0  9996,2 52484  53.2156 246.2273 0001358  90.9586 269.1561 15.08839748 97163,6917.881,95.438,540.686,538.807,0.0
52484.0,STARLINK-3887,PAYLOAD,2024-02-05 12:56:01,15.08837245,0.0001408,53.2159,245.0405,98.847,261.2682,5.3769e-05,5.68e-06,0.0,0 STARLINK-3887,1 52484U 22049AK  24036.53890456  .00000568  00000-0  53769-4 0  9998,2 52484  53.2159 245.0405 0001408  98.8470 261.2682 15.08837245 97049,6917.889,95.438,540.728,538.78,0.0
52484.0,STARLINK-3887,PAYLOAD,2024-02-05 19:17:33,15.08836952,0.0001404,53.216,243.8509,103.1684,256.9465,3.3803e-05,2.5e-06,0.0,0 STARLINK-3887,1 52484U 22049AK  24036.80386543  .00000250  00000-0  33803-4 0  9990,2 52484  53.2160 243.8509 0001404 103.1684 256.9465 15.08836952 97083,6917.89,95.438,540.726,538.783,0.0
52484.0,STARLINK-3887,PAYLOAD,2024-02-06 00:03:43,15.08838537,0.000145,53.216,242.9583,106.207,253.9082,4.3703e-05,4.08e-06,0.0,0 STARLINK-3887,1 52484U 22049AK  24037.00258421  .00000408  00000-0  43703-4 0  9991,2 52484  53.2160 242.9583 0001450 106.2070 253.9082 15.08838537 97116,6917.885,95.438,540.753,538.747,0.0
52484.0,STARLINK-3887,PAYLOAD,2024-02-06 19:08:20,15.08839939,0.0001466,53.2163,239.3899,107.9066,252.2087,9.0571e-05,1.154e-05,0.0,0 STARLINK-3887,1 52484U 22049AK  24037.79746293  .00001154  00000-0  90571-4 0  9990,2 52484  53.2163 239.3899 0001466 107.9066 252.2087 15.08839939 97393,6917.881,95.438,540.76,538.731,0.0
52484.0,STARLINK-3887,PAYLOAD,2024-02-06 20:43:43,15.08842034,0.0001392,53.2161,239.0926,100.9366,259.1783,0.00010305,1.353e-05,0.0,0 STARLINK-3887,1 52484U 22049AK  24037.86370199  .00001353  00000-0  10305-3 0  9993,2 52484  53.2161 239.0926 0001392 100.9366 259.1783 15.08842034 97246,6917.874,95.437,540.702,538.776,0.0
52484.0,STARLINK-3887,PAYLOAD,2024-02-07 22:09:54,15.08840722,0.0001284,53.2159,234.3334,85.8676,274.2463,7.0049e-05,8.27e-06,0.0,0 STARLINK-3887,1 52484U 22049AK  24038.92354553  .00000827  00000-0  70049-4 0  9994,2 52484  53.2159 234.3334 0001284  85.8676 274.2463 15.08840722 97402,6917.878,95.438,540.631,538.855,0.0
52484.0,STARLINK-3887,PAYLOAD,2024-02-08 12:28:22,15.08838986,0.0001301,53.2157,231.659,86.1694,273.9447,5.6558e-05,6.12e-06,0.0,0 STARLINK-3887,1 52484U 22049AK  24039.51970810  .00000612  00000-0  56558-4 0  9991,2 52484  53.2157 231.6590 0001301  86.1694 273.9447 15.08838986 97494,6917.883,95.438,540.649,538.848,0.0
52484.0,STARLINK-3887,PAYLOAD,2024-02-08 20:25:18,15.08840723,0.0001325,53.2159,230.1717,87.4527,272.6617,4.2152e-05,3.83e-06,0.0,0 STARLINK-3887,1 52484U 22049AK  24039.85090735  .00000383  00000-0  42152-4 0  9997,2 52484  53.2159 230.1717 0001325  87.4527 272.6617 15.08840723 97549,6917.878,95.438,540.66,538.827,0.0
52484.0,STARLINK-3887,PAYLOAD,2024-02-09 12:19:09,15.08840913,0.0001304,53.2157,227.1975,88.4084,271.7057,7.838e-05,9.6e-06,0.0,0 STARLINK-3887,1 52484U 22049AK  24040.51330610  .00000960  00000-0  78380-4 0  9994,2 52484  53.2157 227.1975 0001304  88.4084 271.7057 15.08840913 97803,6917.878,95.437,540.645,538.841,0.0
52484.0,STARLINK-3887,PAYLOAD,2024-02-09 18:40:42,15.08843295,0.0001321,53.2157,226.0084,87.3054,272.8089,9.4858e-05,1.222e-05,0.0,0 STARLINK-3887,1 52484U 22049AK  24040.77826417  .00001222  00000-0  94858-4 0  9997,2 52484  53.2157 226.0084 0001321  87.3054 272.8089 15.08843295 97685,6917.87,95.437,540.649,538.821,0.0
52484.0,STARLINK-3887,PAYLOAD,2024-02-10 16:56:06,15.08840513,0.0001318,53.2157,221.8451,87.8956,272.2187,8.6869e-05,1.095e-05,0.0,0 STARLINK-3887,1 52484U 22049AK  24041.70562673  .00001095  00000-0  86869-4 0  9993,2 52484  53.2157 221.8451 0001318  87.8956 272.2187 15.08840513 97984,6917.879,95.438,540.656,538.832,0.0
52484.0,STARLINK-3887,PAYLOAD,2024-02-10 21:42:15,15.08845213,0.0001281,53.2153,220.9519,93.5701,266.5438,9.2451e-05,1.184e-05,0.0,0 STARLINK-3887,1 52484U 22049AK  24041.90434286  .00001184  00000-0  92451-4 0  9996,2 52484  53.2153 220.9519 0001281  93.5701 266.5438 15.08845213 97859,6917.864,95.437,540.616,538.843,0.0
52484.0,STARLINK-3887,PAYLOAD,2024-02-11 12:00:43,15.0884149,0.0001497,53.216,218.2739,110.696,249.4193,2.2e-05,6.2e-07,0.0,0 STARLINK-3887,1 52484U 22049AK  24042.50050582  .00000062  00000-0  22000-4 0  9993,2 52484  53.2160 218.2739 0001497 110.6960 249.4193 15.08841490 97949,6917.876,95.437,540.776,538.705,0.0
52484.0,STARLINK-3887,PAYLOAD,2024-02-11 18:22:15,15.08845309,0.0001427,53.2161,217.0847,103.7185,256.3966,4.8635e-05,4.86e-06,0.0,0 STARLINK-3887,1 52484U 22049AK  24042.76546235  .00000486  00000-0  48635-4 0  9998,2 52484  53.2161 217.0847 0001427 103.7185 256.3966 15.08845309 98143,6917.864,95.437,540.716,538.742,0.0
52484.0,STARLINK-3887,PAYLOAD,2024-02-12 11:51:30,15.08839452,0.0001408,53.2162,213.8122,99.0422,261.0729,5.9076e-05,6.52e-06,0.0,0 STARLINK-3887,1 52484U 22049AK  24043.49410546  .00000652  00000-0  59076-4 0  9990,2 52484  53.2162 213.8122 0001408  99.0422 261.0729 15.08839452 98258,6917.882,95.438,540.721,538.773,0.0
52484.0,STARLINK-3887,PAYLOAD,2024-02-12 16:37:39,15.08837815,0.0001381,53.2165,212.9208,99.4962,260.6186,0.00016685,2.368e-05,0.0,0 STARLINK-3887,1 52484U 22049AK  24043.69282320  .00002368  00000-0  16685-3 0  9993,2 52484  53.2165 212.9208 0001381  99.4962 260.6186 15.08837815 98128,6917.887,95.438,540.707,538.797,0.0
52484.0,STARLINK-3887,PAYLOAD,2024-02-13 11:42:18,15.08832861,0.0001731,53.218,209.3601,110.9413,249.1765,-1.2564e-05,-4.88e-06,0.0,0 STARLINK-3887,1 52484U 22049AK  24044.48771456 -.00000488  00000-0 -12564-4 0  9990,2 52484  53.2180 209.3601 0001731 110.9413 249.1765 15.08832861 98403,6917.902,95.438,540.965,538.57,0.0
52484.0,STARLINK-3887,PAYLOAD,2024-02-13 14:53:05,15.08830809,0.0001615,53.2179,208.765,111.8689,248.2475,-3.086e-05,-7.79e-06,0.0,0 STARLINK-3887,1 52484U 22049AK  24044.62019709 -.00000779  00000-0 -30860-4 0  9994,2 52484  53.2179 208.7650 0001615 111.8689 248.2475 15.08830809 98266,6917.908,95.438,540.891,538.656,0.0
52484.0,STARLINK-3887,PAYLOAD,2024-02-13 18:03:50,15.0884015,0.0001224,53.2155,208.167,103.5634,256.5495,5.3872e-05,5.7e-06,0.0,0 STARLINK-3887,1 52484U 22049AK  24044.75266889  .00000570  00000-0  53872-4 0  9996,2 52484  53.2155 208.1670 0001224 103.5634 256.5495 15.08840150 98286,6917.88,95.438,540.592,538.898,0.0
52484.0,STARLINK-3887,PAYLOAD,2024-02-14 03:36:08,15.08851573,0.0001039,53.2157,206.3788,89.9149,270.1962,0.00016375,2.32e-05,0.0,0 STARLINK-3887,1 52484U 22049AK  24045.15009683  .00002320  00000-0  16375-3 0  9999,2 52484  53.2157 206.3788 0001039  89.9149 270.1962 15.08851573 98507,6917.845,95.437,540.429,538.991,0.0
